{"type":"FeatureCollection","generated_at":"2026-09-08T16:13:26.397Z","venue_count":112,"skipped_no_coordinates":0,"features":[{"type":"Feature","geometry":{"type":"Point","coordinates":[12.14078869,46.53524051]},"properties":{"venue_id":"venue:025016:cortina-d-ampezzo:1224-restaurant-cortina","name":"1224 Restaurant Cortina","municipality":"Cortina d'Ampezzo","province":"BL","venue_type":"restaurant","address":"Via Roma, 62, 32043 Cortina d'Ampezzo","website":"https://www.1224restaurantcortina.it/","resource_count":1,"menu_url":"https://www.1224restaurantcortina.it/media/attachments/2026/07/13/luglio-2026---menu-alla-carta-deg.-1224-restaurant-cortina---ita---website.pdf"}},{"type":"Feature","geometry":{"type":"Point","coordinates":[7.7183096406375,44.410811584643]},"properties":{"venue_id":"venue:004130:mondovi:acquadolce-agritrutta-parco-eventi-acquadolce-mondovi","name":"Agriturismo Acquadolce - Agritrutta - Parco Eventi Acquadolce Mondovì","municipality":"Mondovì","province":"CN","venue_type":"restaurant","address":"Strada di San Biagio, 7, 12084 Mondovì","website":"https://www.acquadolce.net/","resource_count":2,"menu_url":"https://www.acquadolce.net/it/menu-piatti.jsp"}},{"type":"Feature","geometry":{"type":"Point","coordinates":[7.40985791,45.12542983]},"properties":{"venue_id":"venue:001006:almese:sul-monte-capretto","name":"Agriturismo sul Monte Capretto","municipality":"Almese","province":"TO","venue_type":"restaurant","address":"Via Muande, 12, 10040 Almese","website":"https://www.agriturismosulmontecapretto.it/","resource_count":0}},{"type":"Feature","geometry":{"type":"Point","coordinates":[16.046228,40.529809]},"properties":{"venue_id":"venue:076024:castelmezzano:becco-della-civetta","name":"Al Becco della Civetta","municipality":"Castelmezzano","province":"PZ","venue_type":"restaurant","address":"Vico 1 Maglietta, 7, 85010 Castelmezzano","website":"https://www.beccodellacivetta.it/","resource_count":4,"menu_url":"https://www.beccodellacivetta.it/8-blog/31-carta-dei-vini"}},{"type":"Feature","geometry":{"type":"Point","coordinates":[13.53298619,42.32388221]},"properties":{"venue_id":"venue:066073:poggio-picenze:faraone-pizzeria","name":"Al Faraone Pizzeria","municipality":"Poggio Picenze","province":"AQ","venue_type":"pizzeria","address":"SS17, 2, 67026 Poggio Picenze","website":"https://www.alfaraonepizzeria.com/asporto/","resource_count":2,"menu_url":"https://www.alfaraonepizzeria.com/menu/"}},{"type":"Feature","geometry":{"type":"Point","coordinates":[14.12838692,42.34425275]},"properties":{"venue_id":"venue:069022:chieti:alice-pizza","name":"Alice Pizza","municipality":"Chieti","province":"CH","venue_type":"pizzeria","address":"Località Santa Filomena, 66100 Chieti","website":"https://www.alicepizza.it/store/alice-chieti/","resource_count":0}},{"type":"Feature","geometry":{"type":"Point","coordinates":[10.7250155,44.35816595]},"properties":{"venue_id":"venue:036032:polinago:antica-corte-casa-marini","name":"Antica Corte Casa Marini","municipality":"Polinago","province":"MO","venue_type":"restaurant","address":"Via Roncacciolo, 8, 41040 Polinago","website":"https://www.anticacortecasamarini.com/wp/contatti/","resource_count":0}},{"type":"Feature","geometry":{"type":"Point","coordinates":[12.587102868916633,38.03836754158752]},"properties":{"venue_id":"venue:081008:erice:antica-pasticceria-da-michele","name":"Antica Pasticceria da Michele","municipality":"Erice","province":"TP","venue_type":"bar","address":"VIA Vittorio Emanuele 10, 91016 Erice","website":"https://www.anticapasticceriadamichele.com/","resource_count":0}},{"type":"Feature","geometry":{"type":"Point","coordinates":[10.41832388,44.68890853]},"properties":{"venue_id":"venue:034023:montechiarugolo:armeno-caffe","name":"Armeno Caffè","municipality":"Montechiarugolo","province":"PR","venue_type":"cafe","address":"Via Solari, 39, 43022 Montechiarugolo","website":"https://armenocaffe.it/","resource_count":0}},{"type":"Feature","geometry":{"type":"Point","coordinates":[13.23285224,46.06280187]},"properties":{"venue_id":"venue:030129:udine:assaje","name":"Assaje","municipality":"Udine","province":"UD","venue_type":"pizzeria","address":"Piazza Giacomo Matteotti, 11, 33100 Udine","website":"https://www.assaje.it/locations/udine/","resource_count":0}},{"type":"Feature","geometry":{"type":"Point","coordinates":[7.08071717,45.77899767]},"properties":{"venue_id":"venue:007040:la-salle:baita-la-jolie-bergere","name":"Baita La Jolie Bergere","municipality":"La Salle","province":"AO","venue_type":"restaurant","address":"Frazione Planaval, 2, 11015 La Salle","website":"https://www.lajoliebergere.com/","resource_count":2,"menu_url":"https://www.lajoliebergere.com/listino-prezzi/"}},{"type":"Feature","geometry":{"type":"Point","coordinates":[7.5540635,43.87182394]},"properties":{"venue_id":"venue:008001:airole:happy-days","name":"Bar Happy Days","municipality":"Airole","province":"IM","venue_type":"pub","address":"Via Repubblica, 4, 18030 Airole","website":"https://bar-happy-days-airole.eatbu.com/?lang=it","resource_count":0}},{"type":"Feature","geometry":{"type":"Point","coordinates":[8.01804167,44.6888767]},"properties":{"venue_id":"venue:004003:alba:teresio","name":"Bar Teresio","municipality":"Alba","province":"CN","venue_type":"bar","address":"Corso Piave, 103, 12051 Alba","website":"https://www.alteresio.it/","resource_count":1,"menu_url":"https://829a931d-45f6-4c86-b1af-6b875ef91aa1.filesusr.com/ugd/e1893d_030435d1b80849bfaa3e6249a5ee3181.pdf"}},{"type":"Feature","geometry":{"type":"Point","coordinates":[16.286564613870944,38.33201988209262]},"properties":{"venue_id":"venue:080039:gioiosa-ionica:benvenuti-al-sud","name":"Benvenuti al sud","municipality":"Gioiosa Ionica","province":"RC","venue_type":"pizzeria","address":"Via Santa Maria, 89042 Gioiosa Ionica","website":"https://ristorantebenvenutialsud.it/","resource_count":2,"menu_url":"https://ristorantebenvenutialsud.it/images/logoG.png"}},{"type":"Feature","geometry":{"type":"Point","coordinates":[11.24190836,43.77013451]},"properties":{"venue_id":"venue:048017:firenze:berbere-pizzeria","name":"Berberè Pizzeria","municipality":"Firenze","province":"FI","venue_type":"pizzeria","address":"Piazza dei Nerli, 1, 50124 Firenze","website":"https://www.berberepizza.it/","resource_count":3,"menu_url":"https://www.berberepizza.it/menu/"}},{"type":"Feature","geometry":{"type":"Point","coordinates":[12.65133618,41.75589921]},"properties":{"venue_id":"venue:058022:castel-gandolfo:birrodrome-ristorante-pizzeria","name":"Birrodrome Ristorante Pizzeria","municipality":"Castel Gandolfo","province":"RM","venue_type":"pizzeria","address":"Via Spiaggia del Lago, 2, 00073 Castel Gandolfo","website":"https://birrodrome.com/en/chi-siamo/","resource_count":1,"menu_url":"https://birrodrome.com/en/menu/"}},{"type":"Feature","geometry":{"type":"Point","coordinates":[7.72704836,45.83311716]},"properties":{"venue_id":"venue:007007:ayas:brasserie-du-breithorn","name":"Brasserie du Breithorn","municipality":"Ayas","province":"AO","venue_type":"bar","address":"Route Ramey, 27, 11020 Ayas","website":"https://www.breithornhotel.com/","resource_count":2,"menu_url":"https://www.breithornhotel.com/brasserie/"}},{"type":"Feature","geometry":{"type":"Point","coordinates":[13.34802061,43.26768354]},"properties":{"venue_id":"venue:043041:pollenza:brian-boru-pub","name":"Brian Boru' Pub","municipality":"Pollenza","province":"MC","venue_type":"pub","address":"Piazza della Libertà, 1, 62010 Pollenza","website":"https://www.brianboru.it/","resource_count":2,"menu_url":"https://www.brianboru.it/asporto/"}},{"type":"Feature","geometry":{"type":"Point","coordinates":[12.68657402,41.81425665]},"properties":{"venue_id":"venue:058064:monte-porzio-catone:lumiere","name":"Cafe Lumiere","municipality":"Monte Porzio Catone","province":"RM","venue_type":"cafe","address":"Via Frascati Colonna, 2, 00044 Frascati","website":"https://cafe-lumiere.eatbu.com/?lang=it","resource_count":0}},{"type":"Feature","geometry":{"type":"Point","coordinates":[10.99749994,45.442894]},"properties":{"venue_id":"venue:023091:verona:barbarani","name":"Caffè Barbarani","municipality":"Verona","province":"VR","venue_type":"cafe","address":"Piazza delle Erbe, 14A, 37121 Verona","website":"https://www.caffe-barbarani.it/?lang=en","resource_count":0}},{"type":"Feature","geometry":{"type":"Point","coordinates":[9.66938491,45.69481906]},"properties":{"venue_id":"venue:016024:bergamo:del-colleoni","name":"Caffè del Colleoni","municipality":"Bergamo","province":"BG","venue_type":"cafe","address":"Piazza Giacomo Matteotti, 34, 24122 Bergamo","website":"https://www.caffedelcolleoni.it/food.asp","resource_count":1,"menu_url":"https://www.caffedelcolleoni.it/sweb/info_prenotazioni.asp?portale=fun&id_scheda=944"}},{"type":"Feature","geometry":{"type":"Point","coordinates":[13.30317,43.66114]},"properties":{"venue_id":"venue:042027:montemarciano:saccaria","name":"Caffè Saccaria","municipality":"Montemarciano","province":"AN","venue_type":"cafe","address":"Via Mare Adriatico, 54, 60018 Montemarciano","website":"https://www.saccaria.it/shop/","resource_count":0}},{"type":"Feature","geometry":{"type":"Point","coordinates":[14.2088976,42.44159338]},"properties":{"venue_id":"venue:068028:pescara:san-marco","name":"Caffè San Marco","municipality":"Pescara","province":"PE","venue_type":"cafe","address":"Via San Marco, 27, 65129 Pescara","website":"https://www.caffesanmarco.it/","resource_count":0}},{"type":"Feature","geometry":{"type":"Point","coordinates":[14.23998,42.45501]},"properties":{"venue_id":"venue:068028:pescara:les-paillotes","name":"Café Les Paillotes","municipality":"Pescara","province":"PE","venue_type":"cafe","address":"Piazza Le Laudi, 2, 65129 Pescara","website":"https://www.lespaillotes.it/","resource_count":2,"menu_url":"https://www.lespaillotes.it/il-menu-cafe-les-paillotes/"}},{"type":"Feature","geometry":{"type":"Point","coordinates":[14.46459062,41.70285911]},"properties":{"venue_id":"venue:094003:bagnoli-del-trigno:calice-rosso","name":"Calice Rosso","municipality":"Bagnoli del Trigno","province":"IS","venue_type":"restaurant","address":"Via, Variante Esterna, snc, 86091 Bagnoli del Trigno","website":"https://www.calicerosso.it/","resource_count":0}},{"type":"Feature","geometry":{"type":"Point","coordinates":[13.51639948999317,41.538551360003034]},"properties":{"venue_id":"venue:060025:ceprano:ciolli-caffe","name":"Ciolli Caffè","municipality":"Ceprano","province":"FR","venue_type":"cafe","address":"Via della Stazione, 7, 03024 Ceprano","website":"http://ciollicaffe.it/","resource_count":0}},{"type":"Feature","geometry":{"type":"Point","coordinates":[8.55557796,40.72835592]},"properties":{"venue_id":"venue:112050:sassari:copacabana-club","name":"Copacabana Club","municipality":"Sassari","province":"SS","venue_type":"pub","address":"Via Gazometro, 23, 07100 Sassari","website":"https://copacabanaasssportdil.eatbu.com/?lang=it","resource_count":0}},{"type":"Feature","geometry":{"type":"Point","coordinates":[9.09865782,45.80517503]},"properties":{"venue_id":"venue:013075:como:da-benito-pizzeria","name":"Da Benito Pizzeria","municipality":"Como","province":"CO","venue_type":"pizzeria","address":"Via Briantea, 29, 22100 Como","website":"https://www.pizzeriadabenito.it/","resource_count":0}},{"type":"Feature","geometry":{"type":"Point","coordinates":[8.19511311,44.89868494]},"properties":{"venue_id":"venue:005005:asti:dai-toscanacci","name":"Dai Toscanacci","municipality":"Asti","province":"AT","venue_type":"pizzeria","address":"Corso Vittorio Alfieri, 432, 14100 Asti","website":"https://daitoscanacci.eatbu.com/?lang=it","resource_count":0}},{"type":"Feature","geometry":{"type":"Point","coordinates":[11.029228,43.471969]},"properties":{"venue_id":"venue:052028:san-gimignano:diba70-coffee","name":"Diba70 Coffee","municipality":"San Gimignano","province":"SI","venue_type":"cafe","address":"Via di Fugnano, 5, 53037 San Gimignano","website":"https://www.diba70.it/","resource_count":3,"menu_url":"https://www.diba70.it/slow-food/"}},{"type":"Feature","geometry":{"type":"Point","coordinates":[12.35470547,45.91930617]},"properties":{"venue_id":"venue:026072:san-fior:doner-kebab","name":"Döner Kebab","municipality":"San Fior","province":"TV","venue_type":"fast food","address":"Via Europa, 42, 31020 San Fior","website":"https://www.kebabsanfior.it/","resource_count":2,"menu_url":"https://www.kebabsanfior.it/menu/"}},{"type":"Feature","geometry":{"type":"Point","coordinates":[12.06893067,43.02370736]},"properties":{"venue_id":"venue:054036:paciano:echoes-cafe","name":"Echoes café","municipality":"Paciano","province":"PG","venue_type":"bar","address":"Viale Roma, 17, 06060 Paciano","website":"https://echoesgroup.it/","resource_count":0}},{"type":"Feature","geometry":{"type":"Point","coordinates":[7.32683487,45.73768908]},"properties":{"venue_id":"venue:007003:aosta:french-tacos","name":"French Tacos","municipality":"Aosta","province":"AO","venue_type":"fast food","address":"Via Torino, 53, 11100 Aosta","website":"https://www.frenchtacos-aosta.it/","resource_count":1,"menu_url":"https://www.frenchtacos-aosta.it/Ordina-online/"}},{"type":"Feature","geometry":{"type":"Point","coordinates":[13.508147316,45.825050232]},"properties":{"venue_id":"venue:031016:ronchi-dei-legionari:gelateria-frio-frio-ronchi","name":"Gelateria Frio Frio Ronchi","municipality":"Ronchi dei Legionari","province":"GO","venue_type":"ice cream","address":"Via Gabriele D'Annunzio, 107, 34077 Ronchi dei Legionari","website":"https://friofrio.life/","resource_count":0}},{"type":"Feature","geometry":{"type":"Point","coordinates":[8.59157469,39.90483017]},"properties":{"venue_id":"venue:115045:oristano:gelateria-smeralda","name":"Gelateria Smeralda","municipality":"Oristano","province":"OR","venue_type":"ice cream","address":"Corso Umberto I, 39, 09170 Oristano","website":"https://www.gelateriaartigianaleoristano.it/","resource_count":0}},{"type":"Feature","geometry":{"type":"Point","coordinates":[12.77367655,43.94194672]},"properties":{"venue_id":"venue:041020:gradara:gustare-alimentari-gourmet","name":"GustaRé Alimentari Gourmet","municipality":"Gradara","province":"PU","venue_type":"restaurant","address":"Via Umberto I, 12, 61012 Gradara","website":"https://www.gustaregourmet.com/","resource_count":6,"menu_url":"https://www.gustaregourmet.com/negozio/mangiare/biscotteria-e-dolci-tipici/"}},{"type":"Feature","geometry":{"type":"Point","coordinates":[14.47082809,41.48232542]},"properties":{"venue_id":"venue:070003:bojano:hosteria-lu-vic-p-dent","name":"Hosteria Lu Vic P' Dent","municipality":"Bojano","province":"CB","venue_type":"fast food","address":"Corso Umberto I, 18, 86021 Bojano","website":"https://www.hosterialuvicpdent.it/","resource_count":1,"menu_url":"https://www.hosterialuvicpdent.it/cantina/"}},{"type":"Feature","geometry":{"type":"Point","coordinates":[16.20261,39.46286]},"properties":{"venue_id":"venue:078066:lattarico:monaco-ristorante","name":"Il Monaco ristorante","municipality":"Lattarico","province":"CS","venue_type":"pizzeria","address":"Traversa Via Badia, 15, 87010 Lattarico","website":"https://www.ilmonaco.it/","resource_count":6,"menu_url":"https://www.ilmonaco.it/menu-1-col/"}},{"type":"Feature","geometry":{"type":"Point","coordinates":[8.255027445425412,40.58643638459958]},"properties":{"venue_id":"venue:112001:alghero:parco-dei-pini-alghero","name":"Il Parco dei Pini - Alghero","municipality":"Alghero","province":"SS","venue_type":"restaurant","address":"Località le Bombarde, 07041 Alghero","website":"https://ilparcodeipini.com/","resource_count":1,"menu_url":"https://ilparcodeipini.com/wp-content/uploads/2026/05/pdp-menu-2026.pdf"}},{"type":"Feature","geometry":{"type":"Point","coordinates":[12.25076911,42.15845353]},"properties":{"venue_id":"venue:058107:trevignano-romano:porticciolo","name":"Il Porticciolo","municipality":"Trevignano Romano","province":"RM","venue_type":"restaurant","address":"Via Settevene Est, 175, 00069 Trevignano Romano","website":"https://www.ilporticciolotrevignano.it/","resource_count":0}},{"type":"Feature","geometry":{"type":"Point","coordinates":[9.35173705,40.20448994]},"properties":{"venue_id":"venue:114035:orgosolo:portico","name":"Il Portico","municipality":"Orgosolo","province":"NU","venue_type":"restaurant","address":"Via Giovanni XXIII, 34, 08027 Orgosolo","website":"http://www.ristoranteorgosolo.it/","resource_count":1,"menu_url":"http://www.ristoranteorgosolo.it/i-men%C3%B9-proposti-da-il-portico"}},{"type":"Feature","geometry":{"type":"Point","coordinates":[12.56861955,44.07168757]},"properties":{"venue_id":"venue:099014:rimini:portolotto","name":"Il Portolotto","municipality":"Rimini","province":"RN","venue_type":"restaurant","address":"Via Lucio Lando, 22, 47921 Rimini","website":"https://ilportolotto.it/","resource_count":0}},{"type":"Feature","geometry":{"type":"Point","coordinates":[10.57471041,44.55866575]},"properties":{"venue_id":"venue:035044:viano:vulcanetto-del-querciola","name":"Il Vulcanetto del Querciola","municipality":"Viano","province":"RE","venue_type":"restaurant","address":"Via Salone, 3, 42030 Viano","website":"https://www.ilvulcanetto.it/","resource_count":1,"menu_url":"https://www.ilvulcanetto.it/page.php?slug=menu-specialita"}},{"type":"Feature","geometry":{"type":"Point","coordinates":[11.3743501,46.49502545]},"properties":{"venue_id":"venue:021008:bolzano-bozen:imbiss-kampill","name":"Imbiss Kampill","municipality":"Bolzano/Bozen","province":"BZ","venue_type":"restaurant","address":"Via Hildegard Straub, 23, 39100 Bolzano","website":"https://www.imbiss-kampill.com/","resource_count":0}},{"type":"Feature","geometry":{"type":"Point","coordinates":[10.11039188,45.80787205]},"properties":{"venue_id":"venue:017143:pisogne:l-anonimo-different-pub","name":"L'anonimo different pub","municipality":"Pisogne","province":"BS","venue_type":"pub","address":"Via Alcide De Gasperi, 14, 25055 Pisogne","website":"https://www.anonimodifferentpub.it/","resource_count":0}},{"type":"Feature","geometry":{"type":"Point","coordinates":[12.67231708,42.99609061]},"properties":{"venue_id":"venue:054050:spello:bastiglia","name":"La Bastiglia","municipality":"Spello","province":"PG","venue_type":"restaurant","address":"Via Salnitraria, 15, 06038 Spello","website":"https://labastiglia.com/","resource_count":1,"menu_url":"https://booking.slope.it/c5a4caaf-c902-42f0-a72d-ff0d22c8b498"}},{"type":"Feature","geometry":{"type":"Point","coordinates":[7.35655429,45.6081801]},"properties":{"venue_id":"venue:007021:cogne:brasserie-du-bon-bec","name":"La Brasserie du Bon Bec","municipality":"Cogne","province":"AO","venue_type":"restaurant","address":"Rue Bourgeois, 70, 11012 Cogne","website":"https://www.hotelbellevue.it/fr/ristoranti/la-brasserie-du-bon-bec","resource_count":2,"menu_url":"https://www.hotelbellevue.it/downloads/Menu-Bon-Bec.pdf"}},{"type":"Feature","geometry":{"type":"Point","coordinates":[11.53875724,45.89278777]},"properties":{"venue_id":"venue:024042:gallio:capr-allegra","name":"La Capr'Allegra","municipality":"Gallio","province":"VI","venue_type":"restaurant","address":"Via Colle del Gastagh, 4, 36032 Gallio","website":"https://www.lacaprallegra.it/","resource_count":3,"menu_url":"https://www.lacaprallegra.it/wp-content/uploads/2026/04/POR-FESR_La_Capr_Allegra_2026_Sito.pdf"}},{"type":"Feature","geometry":{"type":"Point","coordinates":[16.57639164,40.10997766]},"properties":{"venue_id":"venue:078103:rocca-imperiale:casetta","name":"La Casetta","municipality":"Rocca Imperiale","province":"CS","venue_type":"pizzeria","address":"Via Trevie, 21, 87074 Rocca Imperiale","website":"https://www.lacasettapizzeria.it/","resource_count":1,"menu_url":"https://www.lacasettapizzeria.it/menu"}},{"type":"Feature","geometry":{"type":"Point","coordinates":[12.50189242,46.03117017]},"properties":{"venue_id":"venue:093031:polcenigo:taverna-slow-shop-bar","name":"La Taverna Slow Shop & Bar","municipality":"Polcenigo","province":"PN","venue_type":"bar","address":"Via Gorgazzo, 3, 33070 Polcenigo","website":"https://www.latavernaslowshopandbar.com/","resource_count":0}},{"type":"Feature","geometry":{"type":"Point","coordinates":[11.659059833313,46.574602900002]},"properties":{"venue_id":"venue:021061:ortisei-st-ulrich:labetula-brew-pub","name":"Labëtula Brew Pub","municipality":"Ortisei/St. Ulrich","province":"BZ","venue_type":"pub","address":"Via J.B. Purger 181, 39046 Ortisei","website":"https://www.monpier-gherdeina.it/it/la-betula.php","resource_count":0}},{"type":"Feature","geometry":{"type":"Point","coordinates":[8.46608192,40.81861353]},"properties":{"venue_id":"venue:112050:sassari:lido-sardegna","name":"Lido Sardegna","municipality":"Sassari","province":"SS","venue_type":"restaurant","address":"Via della Torre, 1, 07100 Sassari","website":"https://www.lidosardegna.it/contatti","resource_count":1,"menu_url":"https://new-widget.spiagge.it/stabilimenti-balneari/prenotazione/it-ss-07100-lido-sardegna?"}},{"type":"Feature","geometry":{"type":"Point","coordinates":[9.56321973,39.19024456]},"properties":{"venue_id":"venue:118008:castiadas:lido-tamatete","name":"Lido Tamatete","municipality":"Castiadas","province":"CA","venue_type":"restaurant","address":"Località Cala Sinzias, 09040 Castiadas","website":"https://www.lidotamatete.it/","resource_count":1,"menu_url":"https://www.lidotamatete.it/contatti-e-prenotazioni-lido-tamatete-cala-sinzias/"}},{"type":"Feature","geometry":{"type":"Point","coordinates":[16.54815695,38.68497271]},"properties":{"venue_id":"venue:079137:soverato:stuzzichino","name":"Lo stuzzichino","municipality":"Soverato","province":"CZ","venue_type":"bar","address":"Via Trento e Trieste, 124, 88068 Soverato","website":"https://www.lostuzzichinosoverato.it/","resource_count":3,"menu_url":"https://www.lostuzzichinosoverato.it/menu-beverage/"}},{"type":"Feature","geometry":{"type":"Point","coordinates":[15.38132571,41.23097656]},"properties":{"venue_id":"venue:071022:deliceto:ballaro","name":"Locanda Ballarò","municipality":"Deliceto","province":"FG","venue_type":"restaurant","address":"contrada varco sn, 71026 Deliceto","website":"https://www.locandaballaro.it/","resource_count":1,"menu_url":"https://locandaballaro.kross.travel/it/camere"}},{"type":"Feature","geometry":{"type":"Point","coordinates":[7.22405531,44.84332607]},"properties":{"venue_id":"venue:001011:angrogna:pomo-d-oro","name":"Locanda il Pomo d'Oro","municipality":"Angrogna","province":"TO","venue_type":"restaurant","address":"Piazza Roma, 3, 10060 Angrogna","website":"https://www.locandailpomodoro.it/","resource_count":1,"menu_url":"https://www.locandailpomodoro.it/img/eventi/20251228-menu-polentata-28-dicembre.jpg"}},{"type":"Feature","geometry":{"type":"Point","coordinates":[10.65611775,43.30031393]},"properties":{"venue_id":"venue:050015:guardistallo:giunche","name":"Locanda Le Giunche","municipality":"Guardistallo","province":"PI","venue_type":"restaurant","address":"Via Camminata, 3, 56040 Guardistallo","website":"https://locandalegiunche.it/","resource_count":2,"menu_url":"https://locandalegiunche.plateform.app/welcome"}},{"type":"Feature","geometry":{"type":"Point","coordinates":[13.61984464,43.52271441]},"properties":{"venue_id":"venue:042048:sirolo:love-caffe-centrale-sirolo","name":"Love Caffè Centrale - Sirolo","municipality":"Sirolo","province":"AN","venue_type":"cafe","address":"Via Italia, 8, 60020 Sirolo AN, Italia, 60020 Sirolo","website":"https://www.lovecaffecentrale.it/","resource_count":1,"menu_url":"https://lovecaffecentrale.plateform.app/reserve"}},{"type":"Feature","geometry":{"type":"Point","coordinates":[13.87606901,42.95674299]},"properties":{"venue_id":"venue:044066:san-benedetto-del-tronto:lu-campano","name":"Lu Campanò","municipality":"San Benedetto del Tronto","province":"AP","venue_type":"restaurant","address":"Via Alessandro Manzoni, 1, 63074 San Benedetto del Tronto","website":"https://www.lucampano.it/","resource_count":1,"menu_url":"https://www.lucampano.it/menu/"}},{"type":"Feature","geometry":{"type":"Point","coordinates":[11.54782764,45.54873664]},"properties":{"venue_id":"venue:024116:vicenza:magazzino-del-caffe","name":"Magazzino del Caffè","municipality":"Vicenza","province":"VI","venue_type":"cafe","address":"Corso Andrea Palladio, 152, 36100 Vicenza","website":"https://www.mdc-group.it/","resource_count":0}},{"type":"Feature","geometry":{"type":"Point","coordinates":[11.67135778,46.5743762]},"properties":{"venue_id":"venue:021061:ortisei-st-ulrich:mauriz-keller","name":"Mauriz Keller","municipality":"Ortisei/St. Ulrich","province":"BZ","venue_type":"restaurant","address":"Strada Rezia, 32, 39046 Ortisei","website":"https://www.maurizkeller.com/","resource_count":0}},{"type":"Feature","geometry":{"type":"Point","coordinates":[14.6748166,41.57631239]},"properties":{"venue_id":"venue:070006:campobasso:mcdonald-s","name":"McDonald's","municipality":"Campobasso","province":"CB","venue_type":"fast food","address":"Via Colle delle Api, 42/d, 86100 Campobasso","website":"https://www.mcdonalds.it/ristorante/molise/campobasso/campobasso-drive","resource_count":3,"menu_url":"https://www.mcdonalds.it/prodotti/menu"}},{"type":"Feature","geometry":{"type":"Point","coordinates":[7.3453969,45.73950987]},"properties":{"venue_id":"venue:007003:aosta:mcdonald-s","name":"McDonald's","municipality":"Aosta","province":"AO","venue_type":"fast food","address":"Corso Ivrea, 138, 11100 Aosta","website":"https://www.mcdonalds.it/ristorante/valle-daosta/aosta/aosta","resource_count":4,"menu_url":"https://www.mcdonalds.it/prodotti/menu"}},{"type":"Feature","geometry":{"type":"Point","coordinates":[8.72546441,45.43775885]},"properties":{"venue_id":"venue:003149:trecate:mcdonald-s","name":"McDonald's","municipality":"Trecate","province":"NO","venue_type":"fast food","address":"Via Bettole, 40, 28069 Trecate","website":"https://www.mcdonalds.it/ristorante/piemonte/novara/trecate","resource_count":4,"menu_url":"https://www.mcdonalds.it/prodotti/menu"}},{"type":"Feature","geometry":{"type":"Point","coordinates":[16.08708166,38.67343545]},"properties":{"venue_id":"venue:102047:vibo-valentia:mcdonald-s","name":"McDonald's","municipality":"Vibo Valentia","province":"VV","venue_type":"fast food","address":"viale Affaccio snc, 89900 Vibo Valentia","website":"https://www.mcdonalds.it/ristorante/calabria/vibo-valentia/vibo-valentia","resource_count":4,"menu_url":"https://www.mcdonalds.it/prodotti/menu"}},{"type":"Feature","geometry":{"type":"Point","coordinates":[10.79235075,44.76311927]},"properties":{"venue_id":"venue:035020:correggio:mcdonald-s","name":"McDonald's","municipality":"Correggio","province":"RE","venue_type":"fast food","address":"Viale Vecchia Ferrovia, 28, 42015 Correggio","website":"https://www.mcdonalds.it/ristorante/emilia-romagna/reggio-emilia/correggio-viale-vecchia-ferrovia","resource_count":3,"menu_url":"https://www.mcdonalds.it/prodotti/menu"}},{"type":"Feature","geometry":{"type":"Point","coordinates":[8.20704424,44.05248545]},"properties":{"venue_id":"venue:009002:albenga:mcdonald-s","name":"McDonald's","municipality":"Albenga","province":"SV","venue_type":"fast food","address":"Regione Cavallo, 2, 17031 Albenga","website":"https://www.mcdonalds.it/ristorante/liguria/savona/albenga","resource_count":4,"menu_url":"https://www.mcdonalds.it/prodotti/menu"}},{"type":"Feature","geometry":{"type":"Point","coordinates":[12.09380649,45.75859111]},"properties":{"venue_id":"venue:026093:volpago-del-montello:mcdonald-s","name":"McDonald's","municipality":"Volpago del Montello","province":"TV","venue_type":"fast food","address":"Via Feltrina Sud, 10, 31040 Volpago del Montello","website":"https://www.mcdonalds.it/ristorante/veneto/treviso/volpago-del-montello","resource_count":4,"menu_url":"https://www.mcdonalds.it/prodotti/menu"}},{"type":"Feature","geometry":{"type":"Point","coordinates":[7.53564373,45.10250844]},"properties":{"venue_id":"venue:001008:alpignano:mcdonald-s","name":"McDonald's","municipality":"Alpignano","province":"TO","venue_type":"fast food","address":"Via Venaria, 18, 10091 Alpignano","website":"https://www.mcdonalds.it/ristorante/piemonte/torino/alpignano-via-venaria","resource_count":3,"menu_url":"https://www.mcdonalds.it/prodotti/menu"}},{"type":"Feature","geometry":{"type":"Point","coordinates":[9.96349884,44.11141093]},"properties":{"venue_id":"venue:011027:sarzana:novepunto80-express","name":"Novepunto80 Express","municipality":"Sarzana","province":"SP","venue_type":"fast food","address":"Piazza Firmafede, 5, 19038 Sarzana","website":"https://www.novepunto80.com/express","resource_count":3,"menu_url":"https://www.novepunto80.com/menu"}},{"type":"Feature","geometry":{"type":"Point","coordinates":[7.50898611,45.09522636]},"properties":{"venue_id":"venue:001008:alpignano:bonadies-lago-ristorante","name":"Osteria Bonadies - Lago & Ristorante","municipality":"Alpignano","province":"TO","venue_type":"restaurant","address":"Via Almese, 101, 10091 Alpignano","website":"https://osterialagobonadies.it/","resource_count":1,"menu_url":"https://osterialagobonadies.it/in-tavola/"}},{"type":"Feature","geometry":{"type":"Point","coordinates":[13.22961989,46.06060447]},"properties":{"venue_id":"venue:030129:udine:da-artico","name":"Osteria da Artico","municipality":"Udine","province":"UD","venue_type":"restaurant","address":"Via Poscolle, 58, 33100 Udine","website":"https://www.osteriadaartico.it/","resource_count":1,"menu_url":"https://www.scoutmenu.it/dettagli-locale.php?id=674"}},{"type":"Feature","geometry":{"type":"Point","coordinates":[13.01931086,43.8405267]},"properties":{"venue_id":"venue:041013:fano:dalla-peppa","name":"Osteria dalla Peppa","municipality":"Fano","province":"PU","venue_type":"restaurant","address":"Via Vecchia, 8, 61032 Fano","website":"http://www.osteriadallapeppa.it/","resource_count":2,"menu_url":"https://www.osteriadallapeppa.it/menu/"}},{"type":"Feature","geometry":{"type":"Point","coordinates":[7.38612652,45.05943377]},"properties":{"venue_id":"venue:001013:avigliana:del-lago","name":"Osteria del lago","municipality":"Avigliana","province":"TO","venue_type":"restaurant","address":"Via Giaveno, 23, 10051 Avigliana","website":"https://osteriadellago.eatbu.com/?lang=it","resource_count":0}},{"type":"Feature","geometry":{"type":"Point","coordinates":[10.79909552,45.1579023]},"properties":{"venue_id":"venue:020030:mantova:della-fragoletta-mantova","name":"Osteria della Fragoletta Mantova","municipality":"Mantova","province":"MN","venue_type":"restaurant","address":"Piazza Arche, 5A, 46100 Mantova","website":"https://www.fragoletta.it/","resource_count":3,"menu_url":"https://www.fragoletta.it/pdf/menu.pdf"}},{"type":"Feature","geometry":{"type":"Point","coordinates":[16.61358661,38.8200067]},"properties":{"venue_id":"venue:079023:catanzaro:pizza-e-sfizi","name":"Pizza e Sfizi","municipality":"Catanzaro","province":"CZ","venue_type":"pizzeria","address":"Via Tommaso Gulli, 1, 88100 Catanzaro","website":"https://don-vitto-pizza-e-sfizi.it/","resource_count":0}},{"type":"Feature","geometry":{"type":"Point","coordinates":[10.58853682,46.61744669]},"properties":{"venue_id":"venue:021067:prato-allo-stelvio-prad-am-stilfserjoch:pizza-point","name":"Pizza Point","municipality":"Prato allo Stelvio/Prad am Stilfserjoch","province":"BZ","venue_type":"pizzeria","address":"Via Benedetto Croce, 5, 39026 Prato allo Stelvio","website":"https://www.pizza-point.it/","resource_count":1,"menu_url":"https://www.pizza-point.it/menue"}},{"type":"Feature","geometry":{"type":"Point","coordinates":[13.78225171,45.62836985]},"properties":{"venue_id":"venue:032006:trieste:pizza-smile-4ee40467","name":"Pizza Smile","municipality":"Trieste","province":"TS","venue_type":"pizzeria","address":"Via Antonio Baiamonti, 19/b, 34145 Trieste","website":"https://pizza-smile.order.dish.co/menus","resource_count":6,"menu_url":"https://pizza-smile.order.dish.co/contact"}},{"type":"Feature","geometry":{"type":"Point","coordinates":[13.61943938,43.52342776]},"properties":{"venue_id":"venue:042048:sirolo:el-varolo","name":"Pizzeria El Varolo","municipality":"Sirolo","province":"AN","venue_type":"pizzeria","address":"Via Anacleto Giulietti, 6, 60020 Sirolo","website":"https://pizzeria-el-varolo.eatbu.com/?lang=en","resource_count":0}},{"type":"Feature","geometry":{"type":"Point","coordinates":[12.67299448,42.98917544]},"properties":{"venue_id":"venue:054050:spello:grottino","name":"Pizzeria Il Grottino","municipality":"Spello","province":"PG","venue_type":"pizzeria","address":"Via Consolare, 35, 06038 Spello","website":"https://pizzeriailgrottino.it/","resource_count":2,"menu_url":"https://pizzeriailgrottino.it/components/com_eventgallery/helpers/image.php?width=160&folder=listino&file=1.-pizze.jpg"}},{"type":"Feature","geometry":{"type":"Point","coordinates":[13.76258311,45.64738234]},"properties":{"venue_id":"venue:032006:trieste:mancini-vicino-mare","name":"Pizzeria Mancini Vicino Mare","municipality":"Trieste","province":"TS","venue_type":"restaurant","address":"Riva Nazario Sauro, 22, 34123 Trieste","website":"https://www.pizzeriavicinomare-trieste.com/","resource_count":1,"menu_url":"https://www.pizzeriavicinomare-trieste.com/menu"}},{"type":"Feature","geometry":{"type":"Point","coordinates":[7.52474193,45.0963836]},"properties":{"venue_id":"venue:001008:alpignano:napoli","name":"Pizzeria Napoli","municipality":"Alpignano","province":"TO","venue_type":"pizzeria","address":"Via Silvio Marietti, 5, 10091 Alpignano","website":"https://www.pizzeria-napoli.info/","resource_count":0}},{"type":"Feature","geometry":{"type":"Point","coordinates":[13.79949288,42.52883387]},"properties":{"venue_id":"venue:067007:bisenti:pino-verde","name":"Pizzeria Pino Verde","municipality":"Bisenti","province":"TE","venue_type":"bar","address":"Via Roma, 53, 64033 Bisenti","website":"https://www.pinoverdebisenti.it/dove-siamo/","resource_count":6,"menu_url":"https://www.pinoverdebisenti.it/cucina-menu/"}},{"type":"Feature","geometry":{"type":"Point","coordinates":[12.19274172,45.71409167]},"properties":{"venue_id":"venue:026059:ponzano-veneto:da-miceon","name":"Pizzeria Ristorante da Miceon","municipality":"Ponzano Veneto","province":"TV","venue_type":"restaurant","address":"Via Talponera, 32, 31050 Ponzano Veneto","website":"https://www.pizzeriaristorantedamiceon.com/","resource_count":2,"menu_url":"https://www.pizzeriaristorantedamiceon.com/menu"}},{"type":"Feature","geometry":{"type":"Point","coordinates":[11.37087774,44.4623134]},"properties":{"venue_id":"venue:037006:bologna:rosticceria-da-toto","name":"Pizzeria Rosticceria da Toto","municipality":"Bologna","province":"BO","venue_type":"pizzeria","address":"Via Toscana, 58/3A, 40141 Bologna","website":"https://pizzeria-rosticceria-da-toto.it/","resource_count":0}},{"type":"Feature","geometry":{"type":"Point","coordinates":[15.01322706,38.02210435]},"properties":{"venue_id":"venue:083057:montalbano-elicona:villa-sulla","name":"Pizzeria Villa Sulla","municipality":"Montalbano Elicona","province":"ME","venue_type":"pizzeria","address":"Strada Comunale per Serro, 98065 Montalbano Elicona","website":"https://www.pizzeriavillasulla.it/","resource_count":0}},{"type":"Feature","geometry":{"type":"Point","coordinates":[9.7690068,44.1941767]},"properties":{"venue_id":"venue:011003:beverino:pro-loco-beverino-in-val-di-vara","name":"Pro Loco Beverino in Val di Vara","municipality":"Beverino","province":"SP","venue_type":"pub","address":"Via Aurelia Nord, 1, 19020 Padivarma","website":"https://www.prolocobeverinovaldivara.org/","resource_count":0}},{"type":"Feature","geometry":{"type":"Point","coordinates":[13.50435355,43.59863833]},"properties":{"venue_id":"venue:042002:ancona:maxi-bar-trattoria","name":"Pub Maxi Bar Trattoria","municipality":"Ancona","province":"AN","venue_type":"bar","address":"Via Alessandro Maggini, 4, 60127 Ancona","website":"https://pub-maxi-bar-trattoria.eatbu.com/?lang=en","resource_count":0}},{"type":"Feature","geometry":{"type":"Point","coordinates":[11.3551958,44.48945451]},"properties":{"venue_id":"venue:037006:bologna:radici-pizzeria-bologna","name":"Radici pizzeria Bologna","municipality":"Bologna","province":"BO","venue_type":"pizzeria","address":"Via Fondazza, 30B, 40125 Bologna","website":"https://radici-pizzeria.it/","resource_count":0}},{"type":"Feature","geometry":{"type":"Point","coordinates":[6.97432615,45.78943033]},"properties":{"venue_id":"venue:007022:courmayeur:pierre-alexis","name":"Restaurant Pierre Alexis","municipality":"Courmayeur","province":"AO","venue_type":"restaurant","address":"Via Guglielmo Marconi, 48, 11013 Courmayeur","website":"https://pierrealexis.it/","resource_count":3,"menu_url":"https://pierrealexis.it/menu/"}},{"type":"Feature","geometry":{"type":"Point","coordinates":[14.18883227,40.80681333]},"properties":{"venue_id":"venue:063049:napoli:riserva-rooftop","name":"Riserva RoofTop","municipality":"Napoli","province":"NA","venue_type":"restaurant","address":"Via Alessandro Manzoni, 312, 80123 Napoli","website":"https://riservarooftop.com/","resource_count":3,"menu_url":"https://riservarooftop.com/menu-digitale/menu_riserva_en.pdf"}},{"type":"Feature","geometry":{"type":"Point","coordinates":[8.61395131,44.92043654]},"properties":{"venue_id":"venue:006003:alessandria:antica-casa-rava","name":"Ristorante Antica Casa Rava","municipality":"Alessandria","province":"AL","venue_type":"restaurant","address":"Largo Catania, 12, 15121 Alessandria","website":"https://www.anticacasarava.com/","resource_count":0}},{"type":"Feature","geometry":{"type":"Point","coordinates":[6.98247028,45.79634502]},"properties":{"venue_id":"venue:007022:courmayeur:baita-ermitage","name":"Ristorante Baita Ermitage","municipality":"Courmayeur","province":"AO","venue_type":"restaurant","address":"Località Ermitage, 7, 11013 Courmayeur","website":"https://www.baitaermitage.com/","resource_count":0}},{"type":"Feature","geometry":{"type":"Point","coordinates":[9.20864311,44.30378808]},"properties":{"venue_id":"venue:010044:portofino:da-o-batti","name":"Ristorante Da O Batti","municipality":"Portofino","province":"GE","venue_type":"restaurant","address":"Vico Nuovo, 17, 16034 Portofino","website":"https://www.daobattiportofino.it/","resource_count":2,"menu_url":"https://www.daobattiportofino.it/content.php?ID1=5&ID=5&lang=ITA"}},{"type":"Feature","geometry":{"type":"Point","coordinates":[13.01672803,42.71820211]},"properties":{"venue_id":"venue:054007:cascia:corte-cascia","name":"Ristorante La Corte Cascia","municipality":"Cascia","province":"PG","venue_type":"restaurant","address":"Via Pier Paolo Prosperi, 1, 06043 Cascia","website":"https://www.magrelli.com/hotel-la-corte/","resource_count":1,"menu_url":"https://www.scidoo.com/preventivov2/?cod=880&IDsotto_struttura=250"}},{"type":"Feature","geometry":{"type":"Point","coordinates":[16.315367,39.826211]},"properties":{"venue_id":"venue:078041:civita:l-antico-ulivo","name":"Ristorante Pizzeria L’Antico Ulivo","municipality":"Civita","province":"CS","venue_type":"pizzeria","address":"Corso Umberto I, 56, 87010 Terranova da Sibari","website":"https://lanticoulivocivita.it/","resource_count":1,"menu_url":"https://lanticoulivocivita.it/menu/"}},{"type":"Feature","geometry":{"type":"Point","coordinates":[9.1460094,45.4794252]},"properties":{"venue_id":"venue:015146:milano:ranch-roberta","name":"Ristorante Ranch Roberta","municipality":"Milano","province":"MI","venue_type":"pizzeria","address":"Via Masaccio, 18, 20149 Milano","website":"https://www.ristoranteranchroberta.com/","resource_count":1,"menu_url":"https://www.ristoranteranchroberta.com/prenota-ora"}},{"type":"Feature","geometry":{"type":"Point","coordinates":[16.31299343,39.8277177]},"properties":{"venue_id":"venue:078041:civita:agora","name":"Ristorante- Pizzeria AGORA","municipality":"Civita","province":"CS","venue_type":"restaurant","address":"Civita","website":"https://www.agoraristorazione.it/","resource_count":6,"menu_url":"https://www.agoraristorazione.it/categoria-prodotto/dolci-del-pollino/"}},{"type":"Feature","geometry":{"type":"Point","coordinates":[7.73230724,45.84057328]},"properties":{"venue_id":"venue:007007:ayas:sayoc-pian-villy-champoluc","name":"Sayoc Pian Villy Champoluc","municipality":"Ayas","province":"AO","venue_type":"bar","address":"Plan Villy, 11020 Ayas","website":"https://www.losayoc.it/cookie-policy-ue/","resource_count":0}},{"type":"Feature","geometry":{"type":"Point","coordinates":[14.607539,36.948274]},"properties":{"venue_id":"venue:088003:comiso:scornavacche-turismo-rurale","name":"Scornavacche Turismo Rurale","municipality":"Comiso","province":"RG","venue_type":"pizzeria","address":"SP5, 4, 97012 Chiaramonte Gulfi","website":"https://www.scornavacche.com/","resource_count":0}},{"type":"Feature","geometry":{"type":"Point","coordinates":[15.653881290969583,40.99353263548434]},"properties":{"venue_id":"venue:076048:melfi:sfizio-melfi","name":"Sfizio Melfi","municipality":"Melfi","province":"PZ","venue_type":"pizzeria","address":"Viale Gabriele D'Annunzio, 6, 85025 Melfi","website":"https://sfizio.shop/","resource_count":1,"menu_url":"https://sfizio.shop/menu"}},{"type":"Feature","geometry":{"type":"Point","coordinates":[10.94449,43.72259779]},"properties":{"venue_id":"venue:048014:empoli:spizzometro-empoli","name":"Spizzometro Empoli","municipality":"Empoli","province":"FI","venue_type":"pub","address":"Via dei Navicelli, 8, 50053 Empoli","website":"https://spizzometro.eatbu.com/?lang=it","resource_count":0}},{"type":"Feature","geometry":{"type":"Point","coordinates":[13.03623016,41.24945242]},"properties":{"venue_id":"venue:059024:sabaudia:st-bar-saporetti","name":"ST BAR - Saporetti","municipality":"Sabaudia","province":"LT","venue_type":"bar","address":"Via Torre Paola, 5, 04016 Sabaudia","website":"https://saporetti.it/","resource_count":5,"menu_url":"https://saporetti.it/menu-food-baretto/"}},{"type":"Feature","geometry":{"type":"Point","coordinates":[9.35158332,40.20545017]},"properties":{"venue_id":"venue:114035:orgosolo:su-lizu-pizzeria","name":"Su Lizu Pizzeria","municipality":"Orgosolo","province":"NU","venue_type":"pizzeria","address":"Via Nuoro, 20, 08027 Orgosolo","website":"http://www.sulizupizzeria.it/","resource_count":0}},{"type":"Feature","geometry":{"type":"Point","coordinates":[6.94456777,45.79074989]},"properties":{"venue_id":"venue:007022:courmayeur:super-g-italian-mountain-club","name":"SUPER G - Italian Mountain Club","municipality":"Courmayeur","province":"AO","venue_type":"bar","address":"Checrouit, 9, 11013 Courmayeur","website":"https://lovesuperg.com/","resource_count":3,"menu_url":"https://booking.slope.it/6c432a49-3c59-44ad-befe-1d934b11884d"}},{"type":"Feature","geometry":{"type":"Point","coordinates":[16.60749006,40.66722485]},"properties":{"venue_id":"venue:077014:matera:tipicamente-matera","name":"Tipicamente Matera","municipality":"Matera","province":"MT","venue_type":"fast food","address":"Via San Biagio, 20, 75100 Matera","website":"https://www.tipica-mente.it/","resource_count":2,"menu_url":"https://www.tipica-mente.it/menu-fai-da-te/"}},{"type":"Feature","geometry":{"type":"Point","coordinates":[8.16732738,44.07144061]},"properties":{"venue_id":"venue:009025:cisano-sul-neva:torrefazione-caffe-pasqualini","name":"Torrefazione Caffe Pasqualini","municipality":"Cisano sul Neva","province":"SV","venue_type":"cafe","address":"Via Benessea, 5, 17035 Cisano sul Neva","website":"https://pasqualiniilcaffe.it/contatti/","resource_count":0}},{"type":"Feature","geometry":{"type":"Point","coordinates":[13.88015402,41.90454807]},"properties":{"venue_id":"venue:066093:scanno:sgabello","name":"Trattoria Lo Sgabello","municipality":"Scanno","province":"AQ","venue_type":"restaurant","address":"Via Pescatori, 44, 67038 Scanno","website":"https://losgabelloscanno.it/","resource_count":3,"menu_url":"https://losgabelloscanno.it/Menu/"}},{"type":"Feature","geometry":{"type":"Point","coordinates":[7.7097872,45.67771663]},"properties":{"venue_id":"venue:007073:verres:omens","name":"Trattoria Omens","municipality":"Verrès","province":"AO","venue_type":"restaurant","address":"Località Omeins, 1, 11029 Verrès","website":"https://www.trattoriaomens.it/","resource_count":2,"menu_url":"https://www.trattoriaomens.it/menu.html"}},{"type":"Feature","geometry":{"type":"Point","coordinates":[8.43879087,44.27077774]},"properties":{"venue_id":"venue:009064:vado-ligure:u-cafe-de-vue","name":"U Cafè de Vue","municipality":"Vado Ligure","province":"SV","venue_type":"cafe","address":"Via Aurelia, 180, 17047 Vado Ligure","website":"https://www.cafedevue.com/","resource_count":1,"menu_url":"https://www.cafedevue.com/menu/"}},{"type":"Feature","geometry":{"type":"Point","coordinates":[12.65002621,42.56479013]},"properties":{"venue_id":"venue:055032:terni:u-street","name":"U Street","municipality":"Terni","province":"TR","venue_type":"fast food","address":"Vico Catina, 15, 05100 Terni","website":"https://www.umamistreet.it/","resource_count":2,"menu_url":"https://www.umamistreet.it/fast-food-menu/"}},{"type":"Feature","geometry":{"type":"Point","coordinates":[9.28054753,45.5856257]},"properties":{"venue_id":"venue:108033:monza:victory54","name":"Victory54","municipality":"Monza","province":"MB","venue_type":"restaurant","address":"Via Aliprandi Pinalla, 17, 20900 Monza","website":"https://www.victory54.it/","resource_count":1,"menu_url":"https://www.victory54.it/pizzeria/"}}]}
